[{"OBJECT_NAME":"SDA_1684","OBJECT_ID":"2025-230W","EPOCH":"2026-03-09T22:42:30.839328","MEAN_MOTION":13.84530405,"ECCENTRICITY":0.00030032,"INCLINATION":81.3001,"RA_OF_ASC_NODE":303.7717,"ARG_OF_PERICENTER":64.2514,"MEAN_ANOMALY":295.8953,"EPHEMERIS_TYPE":0,"CLASSIFICATION_TYPE":"U","NORAD_CAT_ID":65994,"ELEMENT_SET_NO":999,"REV_AT_EPOCH":2007,"BSTAR":-0.026007307,"MEAN_MOTION_DOT":-0.00029027,"MEAN_MOTION_DDOT":0},{"OBJECT_NAME":"YAOGAN-50 01","OBJECT_ID":"2026-006A","EPOCH":"2026-03-09T21:57:44.750592","MEAN_MOTION":13.83251108,"ECCENTRICITY":0.00011096,"INCLINATION":142.0346,"RA_OF_ASC_NODE":96.0351,"ARG_OF_PERICENTER":270.9545,"MEAN_ANOMALY":89.1047,"EPHEMERIS_TYPE":0,"CLASSIFICATION_TYPE":"U","NORAD_CAT_ID":67433,"ELEMENT_SET_NO":999,"REV_AT_EPOCH":768,"BSTAR":0.00014147475,"MEAN_MOTION_DOT":3.45e-6,"MEAN_MOTION_DDOT":0}]
